{"type": "FeatureCollection", "features": [ {"type": "Feature", "properties": {"norad_id": 29868, "name": "FENGYUN 1C DEB", "group": "fengyun-1c-debris", "lat": 53.382829733307204, "lon": -137.95105941998008, "alt_km": 691.2054013234583, "timestamp": "2025-12-11T10:53:16.158547+00:00", "meta": {"OBJECT_NAME": "FENGYUN 1C DEB", "OBJECT_ID": "1999-025FN", "EPOCH": "2025-12-11T02:20:23.099712", "MEAN_MOTION": 14.78387538, "ECCENTRICITY": 0.0197006, "INCLINATION": 97.9504, "RA_OF_ASC_NODE": 30.8575, "ARG_OF_PERICENTER": 9.3676, "MEAN_ANOMALY": 19.9578, "EPHEMERIS_TYPE": 0, "CLASSIFICATION_TYPE": "U", "NORAD_CAT_ID": 29868, "ELEMENT_SET_NO": 999, "REV_AT_EPOCH": 271, "BSTAR": 0.00096279, "MEAN_MOTION_DOT": 9.667e-05, "MEAN_MOTION_DDOT": 0}, "tle": {"line1": "1 29868U 99025FN  25345.09748958  .00009667  00000+0  96279-3 0  9990", "line2": "2 29868  97.9504  30.8575 0197006   9.3676  19.9578 14.78387538  2714"}}, "geometry": {"type": "Point", "coordinates": [-137.95105941998008, 53.382829733307204]}}, {"type": "Feature", "properties": {"norad_id": 29869, "name": "FENGYUN 1C DEB", "group": "fengyun-1c-debris", "lat": 7.802233592157261, "lon": -85.51766711524661, "alt_km": 708.3944981280783, "timestamp": "2025-12-11T10:53:16.158558+00:00", "meta": {"OBJECT_NAME": "FENGYUN 1C DEB", "OBJECT_ID": "1999-025FP", "EPOCH": "2025-12-10T18:16:37.680672", "MEAN_MOTION": 14.36876512, "ECCENTRICITY": 0.00877518, "INCLINATION": 98.8727, "RA_OF_ASC_NODE": 274.9956, "ARG_OF_PERICENTER": 16.8573, "MEAN_ANOMALY": 13.1844, "EPHEMERIS_TYPE": 0, "CLASSIFICATION_TYPE": "U", "NORAD_CAT_ID": 29869, "ELEMENT_SET_NO": 999, "REV_AT_EPOCH": 98792, "BSTAR": 0.00075132282, "MEAN_MOTION_DOT": 2.274e-05, "MEAN_MOTION_DDOT": 0}, "tle": {"line1": "1 29869U 99025FP  25344.76154723  .00002274  00000+0  75132-3 0  9997", "line2": "2 29869  98.8727 274.9956 0087751  16.8573  13.1844 14.36876512987926"}}, "geometry": {"type": "Point", "coordinates": [-85.51766711524661, 7.802233592157261]}}, {"type": "Feature", "properties": {"norad_id": 29870, "name": "FENGYUN 1C DEB", "group": "fengyun-1c-debris", "lat": 71.29361334379996, "lon": -69.66447414095603, "alt_km": 834.2112809850987, "timestamp": "2025-12-11T10:53:16.158568+00:00", "meta": {"OBJECT_NAME": "FENGYUN 1C DEB", "OBJECT_ID": "1999-025FQ", "EPOCH": "2025-12-11T03:53:27.982752", "MEAN_MOTION": 14.28979624, "ECCENTRICITY": 0.0119771, "INCLINATION": 98.4598, "RA_OF_ASC_NODE": 316.1269, "ARG_OF_PERICENTER": 197.0643, "MEAN_ANOMALY": 178.515, "EPHEMERIS_TYPE": 0, "CLASSIFICATION_TYPE": "U", "NORAD_CAT_ID": 29870, "ELEMENT_SET_NO": 999, "REV_AT_EPOCH": 98571, "BSTAR": 8.2665e-05, "MEAN_MOTION_DOT": 1.82e-06, "MEAN_MOTION_DDOT": 0}, "tle": {"line1": "1 29870U 99025FQ  25345.16212943  .00000182  00000+0  82665-4 0  9999", "line2": "2 29870  98.4598 316.1269 0119771 197.0643 178.5150 14.28979624985714"}}, "geometry": {"type": "Point", "coordinates": [-69.66447414095603, 71.29361334379996]}}, {"type": "Feature", "properties": {"norad_id": 29871, "name": "FENGYUN 1C DEB", "group": "fengyun-1c-debris", "lat": -38.18028958836913, "lon": -54.34726424925726, "alt_km": 792.3018232054155, "timestamp": "2025-12-11T10:53:16.158579+00:00", "meta": {"OBJECT_NAME": "FENGYUN 1C DEB", "OBJECT_ID": "1999-025FR", "EPOCH": "2025-12-11T02:48:22.288896", "MEAN_MOTION": 14.4262182, "ECCENTRICITY": 0.0058616, "INCLINATION": 98.9729, "RA_OF_ASC_NODE": 298.1613, "ARG_OF_PERICENTER": 112.2195, "MEAN_ANOMALY": 261.6622, "EPHEMERIS_TYPE": 0, "CLASSIFICATION_TYPE": "U", "NORAD_CAT_ID": 29871, "ELEMENT_SET_NO": 999, "REV_AT_EPOCH": 98678, "BSTAR": 0.0013471, "MEAN_MOTION_DOT": 4.523e-05, "MEAN_MOTION_DDOT": 0}, "tle": {"line1": "1 29871U 99025FR  25345.11692464  .00004523  00000+0  13471-2 0  9995", "line2": "2 29871  98.9729 298.1613 0058616 112.2195 261.6622 14.42621820986783"}}, "geometry": {"type": "Point", "coordinates": [-54.34726424925726, -38.18028958836913]}}, {"type": "Feature", "properties": {"norad_id": 29872, "name": "FENGYUN 1C DEB", "group": "fengyun-1c-debris", "lat": 25.45944208594171, "lon": -174.53671528058638, "alt_km": 921.8786682452492, "timestamp": "2025-12-11T10:53:16.158590+00:00", "meta": {"OBJECT_NAME": "FENGYUN 1C DEB", "OBJECT_ID": "1999-025FS", "EPOCH": "2025-12-11T00:08:55.807008", "MEAN_MOTION": 14.38939629, "ECCENTRICITY": 0.0235419, "INCLINATION": 98.3462, "RA_OF_ASC_NODE": 1.0196, "ARG_OF_PERICENTER": 318.8186, "MEAN_ANOMALY": 39.5444, "EPHEMERIS_TYPE": 0, "CLASSIFICATION_TYPE": "U", "NORAD_CAT_ID": 29872, "ELEMENT_SET_NO": 999, "REV_AT_EPOCH": 98567, "BSTAR": 0.00094127, "MEAN_MOTION_DOT": 3.961e-05, "MEAN_MOTION_DDOT": 0}, "tle": {"line1": "1 29872U 99025FS  25345.00620147  .00003961  00000+0  94127-3 0  9996", "line2": "2 29872  98.3462   1.0196 0235419 318.8186  39.5444 14.38939629985676"}}, "geometry": {"type": "Point", "coordinates": [-174.53671528058638, 25.45944208594171]}}, {"type": "Feature", "properties": {"norad_id": 29873, "name": "FENGYUN 1C DEB", "group": "fengyun-1c-debris", "lat": 59.86526728166658, "lon": -171.1667822531764, "alt_km": 946.5924823537189, "timestamp": "2025-12-11T10:53:16.158600+00:00", "meta": {"OBJECT_NAME": "FENGYUN 1C DEB", "OBJECT_ID": "1999-025FT", "EPOCH": "2025-12-11T04:19:49.788768", "MEAN_MOTION": 13.98145782, "ECCENTRICITY": 0.0092498, "INCLINATION": 99.4421, "RA_OF_ASC_NODE": 205.2108, "ARG_OF_PERICENTER": 203.2543, "MEAN_ANOMALY": 284.2432, "EPHEMERIS_TYPE": 0, "CLASSIFICATION_TYPE": "U", "NORAD_CAT_ID": 29873, "ELEMENT_SET_NO": 999, "REV_AT_EPOCH": 96293, "BSTAR": 0.0001741, "MEAN_MOTION_DOT": 2.1e-06, "MEAN_MOTION_DDOT": 0}, "tle": {"line1": "1 29873U 99025FT  25345.18043737  .00000210  00000+0  17410-3 0  9994", "line2": "2 29873  99.4421 205.2108 0092498 203.2543 284.2432 13.98145782962931"}}, "geometry": {"type": "Point", "coordinates": [-171.1667822531764, 59.86526728166658]}}, {"type": "Feature", "properties": {"norad_id": 29874, "name": "FENGYUN 1C DEB", "group": "fengyun-1c-debris", "lat": 39.69394221322116, "lon": 69.41785858630149, "alt_km": 854.4583847656022, "timestamp": "2025-12-11T10:53:16.158611+00:00", "meta": {"OBJECT_NAME": "FENGYUN 1C DEB", "OBJECT_ID": "1999-025FU", "EPOCH": "2025-12-11T04:16:59.242944", "MEAN_MOTION": 14.2876912, "ECCENTRICITY": 0.0105245, "INCLINATION": 98.3786, "RA_OF_ASC_NODE": 242.1268, "ARG_OF_PERICENTER": 355.3471, "MEAN_ANOMALY": 168.9864, "EPHEMERIS_TYPE": 0, "CLASSIFICATION_TYPE": "U", "NORAD_CAT_ID": 29874, "ELEMENT_SET_NO": 999, "REV_AT_EPOCH": 96825, "BSTAR": 0.0046591, "MEAN_MOTION_DOT": 0.00012431, "MEAN_MOTION_DDOT": 0}, "tle": {"line1": "1 29874U 99025FU  25345.17846346  .00012431  00000+0  46591-2 0  9990", "line2": "2 29874  98.3786 242.1268 0105245 355.3471 168.9864 14.28769120968255"}}, "geometry": {"type": "Point", "coordinates": [69.41785858630149, 39.69394221322116]}}, {"type": "Feature", "properties": {"norad_id": 29875, "name": "FENGYUN 1C DEB", "group": "fengyun-1c-debris", "lat": 1.420819477847874, "lon": 36.72191680682668, "alt_km": 786.3853260790311, "timestamp": "2025-12-11T10:53:16.158621+00:00", "meta": {"OBJECT_NAME": "FENGYUN 1C DEB", "OBJECT_ID": "1999-025FV", "EPOCH": "2025-12-11T02:42:15.578784", "MEAN_MOTION": 14.2487808, "ECCENTRICITY": 0.0083204, "INCLINATION": 98.4054, "RA_OF_ASC_NODE": 36.6055, "ARG_OF_PERICENTER": 68.003, "MEAN_ANOMALY": 346.3428, "EPHEMERIS_TYPE": 0, "CLASSIFICATION_TYPE": "U", "NORAD_CAT_ID": 29875, "ELEMENT_SET_NO": 999, "REV_AT_EPOCH": 98299, "BSTAR": 3.8151e-05, "MEAN_MOTION_DOT": 5.1e-07, "MEAN_MOTION_DDOT": 0}, "tle": {"line1": "1 29875U 99025FV  25345.11268031  .00000051  00000+0  38151-4 0  9994", "line2": "2 29875  98.4054  36.6055 0083204  68.0030 346.3428 14.24878080982991"}}, "geometry": {"type": "Point", "coordinates": [36.72191680682668, 1.420819477847874]}}, {"type": "Feature", "properties": {"norad_id": 29876, "name": "FENGYUN 1C DEB", "group": "fengyun-1c-debris", "lat": -78.52922147204487, "lon": 82.34666337606696, "alt_km": 841.5612985085854, "timestamp": "2025-12-11T10:53:16.158632+00:00", "meta": {"OBJECT_NAME": "FENGYUN 1C DEB", "OBJECT_ID": "1999-025FW", "EPOCH": "2025-12-11T02:56:43.630080", "MEAN_MOTION": 14.20295714, "ECCENTRICITY": 0.00616, "INCLINATION": 98.3334, "RA_OF_ASC_NODE": 35.7889, "ARG_OF_PERICENTER": 22.0935, "MEAN_ANOMALY": 5.4043, "EPHEMERIS_TYPE": 0, "CLASSIFICATION_TYPE": "U", "NORAD_CAT_ID": 29876, "ELEMENT_SET_NO": 999, "REV_AT_EPOCH": 97894, "BSTAR": 0.00019744, "MEAN_MOTION_DOT": 3.9e-06, "MEAN_MOTION_DDOT": 0}, "tle": {"line1": "1 29876U 99025FW  25345.12272720  .00000390  00000+0  19744-3 0  9998", "line2": "2 29876  98.3334  35.7889 0061600  22.0935   5.4043 14.20295714978946"}}, "geometry": {"type": "Point", "coordinates": [82.34666337606696, -78.52922147204487]}}, {"type": "Feature", "properties": {"norad_id": 29877, "name": "FENGYUN 1C DEB", "group": "fengyun-1c-debris", "lat": 60.86608225355682, "lon": -173.56492836588882, "alt_km": 811.2682777018254, "timestamp": "2025-12-11T10:53:16.158642+00:00", "meta": {"OBJECT_NAME": "FENGYUN 1C DEB", "OBJECT_ID": "1999-025FX", "EPOCH": "2025-12-10T11:29:13.411680", "MEAN_MOTION": 14.24783913, "ECCENTRICITY": 0.00457557, "INCLINATION": 98.5373, "RA_OF_ASC_NODE": 349.8523, "ARG_OF_PERICENTER": 225.0866, "MEAN_ANOMALY": 295.0151, "EPHEMERIS_TYPE": 0, "CLASSIFICATION_TYPE": "U", "NORAD_CAT_ID": 29877, "ELEMENT_SET_NO": 999, "REV_AT_EPOCH": 97941, "BSTAR": 0.00070663044, "MEAN_MOTION_DOT": 1.622e-05, "MEAN_MOTION_DDOT": 0}, "tle": {"line1": "1 29877U 99025FX  25344.47862745  .00001622  00000+0  70663-3 0  9994", "line2": "2 29877  98.5373 349.8523 0045755 225.0866 295.0151 14.24783913979414"}}, "geometry": {"type": "Point", "coordinates": [-173.56492836588882, 60.86608225355682]}}]}